NORAD_CAT_ID,OBJECT_NAME,OBJECT_TYPE,EPOCH,MEAN_MOTION,ECCENTRICITY,INCLINATION,RA_OF_ASC_NODE,ARG_OF_PERICENTER,MEAN_ANOMALY,BSTAR,MEAN_MOTION_DOT,MEAN_MOTION_DDOT,TLE_LINE0,TLE_LINE1,TLE_LINE2,SEMIMAJOR_AXIS,PERIOD,APOGEE,PERIGEE,DECAYED
53860.0,STARLINK-4799,PAYLOAD,2023-02-28 13:30:47,15.08838252,0.000105,53.2165,205.3416,95.0718,265.0394,-0.00022889,-3.928e-05,0.0,0 STARLINK-4799,1 53860U 22114AU  23059.56304709 -.00003928  00000-0 -22889-3 0  9991,2 53860  53.2165 205.3416 0001050  95.0718 265.0394 15.08838252 26035,6917.886,95.438,540.477,539.024,0.0
53860.0,STARLINK-4799,PAYLOAD,2023-02-28 18:16:56,15.08845356,0.0001096,53.2171,204.4508,101.9699,258.1416,-0.00010305,-1.928e-05,0.0,0 STARLINK-4799,1 53860U 22114AU  23059.76176288 -.00001928  00000-0 -10305-3 0  9990,2 53860  53.2171 204.4508 0001096 101.9699 258.1416 15.08845356 26063,6917.864,95.437,540.487,538.971,0.0
53860.0,STARLINK-4799,PAYLOAD,2023-03-01 10:10:48,15.08835478,0.0001505,53.2183,201.4786,111.0053,249.11,-0.00026361,-4.48e-05,0.0,0 STARLINK-4799,1 53860U 22114AU  23060.42416894 -.00004480  00000-0 -26361-3 0  9990,2 53860  53.2183 201.4786 0001505 111.0053 249.1100 15.08835478 25863,6917.894,95.438,540.8,538.718,0.0
53860.0,STARLINK-4799,PAYLOAD,2023-03-01 19:43:06,15.08843614,0.0001203,53.2169,199.6932,104.4605,255.6521,-5.3488e-05,-1.139e-05,0.0,0 STARLINK-4799,1 53860U 22114AU  23060.82160536 -.00001139  00000-0 -53488-4 0  9992,2 53860  53.2169 199.6932 0001203 104.4605 255.6521 15.08843614 26223,6917.869,95.437,540.567,538.902,0.0
53860.0,STARLINK-4799,PAYLOAD,2023-03-02 17:58:30,15.08853748,0.0001202,53.2161,195.5295,100.3581,259.7547,0.00056482,8.716e-05,0.0,0 STARLINK-4799,1 53860U 22114AU  23061.74896846  .00008716  00000-0  56482-3 0  9996,2 53860  53.2161 195.5295 0001202 100.3581 259.7547 15.08853748 26366,6917.838,95.437,540.535,538.872,0.0
53860.0,STARLINK-4799,PAYLOAD,2023-03-03 01:55:26,15.08844389,9.69e-05,53.2151,194.0418,102.1016,258.0085,0.00028105,4.188e-05,0.0,0 STARLINK-4799,1 53860U 22114AU  23062.08017002  .00004188  00000-0  28105-3 0  9993,2 53860  53.2151 194.0418 0000969 102.1016 258.0085 15.08844389 26111,6917.867,95.437,540.402,539.062,0.0
53860.0,STARLINK-4799,PAYLOAD,2023-03-03 11:27:45,15.08857192,6.93e-05,53.2157,192.2582,115.2515,244.8549,0.0005488,8.461e-05,0.0,0 STARLINK-4799,1 53860U 22114AU  23062.47760531  .00008461  00000-0  54880-3 0  9995,2 53860  53.2157 192.2582 0000693 115.2515 244.8549 15.08857192 26475,6917.828,95.436,540.172,539.213,0.0
53860.0,STARLINK-4799,PAYLOAD,2023-03-03 13:03:08,15.08875482,9.99e-05,53.2152,191.9608,101.6749,258.4355,0.0013653,0.00021529,0.0,0 STARLINK-4799,1 53860U 22114AU  23062.54384260  .00021529  00000-0  13653-2 0  9996,2 53860  53.2152 191.9608 0000999 101.6749 258.4355 15.08875482 26188,6917.772,95.435,540.328,538.946,0.0
53860.0,STARLINK-4799,PAYLOAD,2023-03-03 21:00:02,15.08902111,0.0001032,53.2151,190.4738,99.5416,260.5693,0.0028871,0.00046039,0.0,0 STARLINK-4799,1 53860U 22114AU  23062.87503380  .00046039  00000-0  28871-2 0  9999,2 53860  53.2151 190.4738 0001032  99.5416 260.5693 15.08902111 26538,6917.691,95.434,540.269,538.842,0.0
53860.0,STARLINK-4799,PAYLOAD,2023-03-04 08:07:45,15.0883612,0.0001163,53.2156,188.3924,90.7979,269.3147,-1.5931e-05,-5.41e-06,0.0,0 STARLINK-4799,1 53860U 22114AU  23063.33872293 -.00000541  00000-0 -15931-4 0  9998,2 53860  53.2156 188.3924 0001163  90.7979 269.3147 15.08836120 26300,6917.892,95.438,540.562,538.953,0.0
53860.0,STARLINK-4799,PAYLOAD,2023-03-04 14:29:18,15.08859833,0.0001259,53.2149,187.2027,88.5672,271.5464,0.0027476,0.00043735,0.0,0 STARLINK-4799,1 53860U 22114AU  23063.60368319  .00043735  00000-0  27476-2 0  9992,2 53860  53.2149 187.2027 0001259  88.5672 271.5464 15.08859833 26342,6917.82,95.436,540.556,538.814,0.0
53860.0,STARLINK-4799,PAYLOAD,2023-03-05 01:37:00,15.08860919,0.0001385,53.2158,185.1209,93.7407,266.3744,0.0021324,0.00033832,0.0,0 STARLINK-4799,1 53860U 22114AU  23064.06736494  .00033832  00000-0  21324-2 0  9999,2 53860  53.2158 185.1209 0001385  93.7407 266.3744 15.08860919 26413,6917.816,95.436,540.64,538.723,0.0
53860.0,STARLINK-4799,PAYLOAD,2023-03-06 11:00:06,15.0885102,0.0001519,53.2153,178.8761,109.8363,250.2793,0.00068995,0.00010713,0.0,0 STARLINK-4799,1 53860U 22114AU  23065.45840763  .00010713  00000-0  68995-3 0  9997,2 53860  53.2153 178.8761 0001519 109.8363 250.2793 15.08851020 26621,6917.847,95.437,540.763,538.661,0.0
53860.0,STARLINK-4799,PAYLOAD,2023-03-06 18:57:01,15.08875797,0.0001535,53.2167,177.3898,111.7426,248.373,0.0011043,0.00017348,0.0,0 STARLINK-4799,1 53860U 22114AU  23065.78959833  .00017348  00000-0  11043-2 0  9994,2 53860  53.2167 177.3898 0001535 111.7426 248.3730 15.08875797 26672,6917.771,95.435,540.698,538.574,0.0
53860.0,STARLINK-4799,PAYLOAD,2023-03-07 06:04:43,15.08838638,0.0001303,53.2167,175.3084,118.1649,241.9475,-0.00015165,-2.7e-05,0.0,0 STARLINK-4799,1 53860U 22114AU  23066.25328674 -.00002700  00000-0 -15165-3 0  9998,2 53860  53.2167 175.3084 0001303 118.1649 241.9475 15.08838638 26744,6917.885,95.438,540.651,538.848,0.0
53860.0,STARLINK-4799,PAYLOAD,2023-03-07 18:47:48,15.08888715,8.94e-05,53.2168,172.9306,93.3683,266.7411,0.0039321,0.00062934,0.0,0 STARLINK-4799,1 53860U 22114AU  23066.78320257  .00062934  00000-0  39321-2 0  9997,2 53860  53.2168 172.9306 0000894  93.3683 266.7411 15.08888715 26826,6917.731,95.434,540.215,538.978,0.0
53860.0,STARLINK-4799,PAYLOAD,2023-03-08 05:55:31,15.08813671,9.82e-05,53.2166,170.8496,119.4834,240.6256,0.0031943,0.00050879,0.0,0 STARLINK-4799,1 53860U 22114AU  23067.24689519  .00050879  00000-0  31943-2 0  9995,2 53860  53.2166 170.8496 0000982 119.4834 240.6256 15.08813671 26891,6917.961,95.439,540.505,539.147,0.0
53860.0,STARLINK-4799,PAYLOAD,2023-03-08 21:49:23,15.08836214,9.61e-05,53.2164,167.876,96.9478,263.1623,0.0021736,0.00034471,0.0,0 STARLINK-4799,1 53860U 22114AU  23067.90929758  .00034471  00000-0  21736-2 0  9999,2 53860  53.2164 167.8760 0000961  96.9478 263.1623 15.08836214 27290,6917.892,95.438,540.422,539.092,0.0
53860.0,STARLINK-4799,PAYLOAD,2023-03-08 23:24:46,15.08851776,9.27e-05,53.2163,167.5784,109.1653,250.9439,0.0017526,0.00027724,0.0,0 STARLINK-4799,1 53860U 22114AU  23067.97553699  .00027724  00000-0  17526-2 0  9998,2 53860  53.2163 167.5784 0000927 109.1653 250.9439 15.08851776 27004,6917.844,95.437,540.351,539.068,0.0
53860.0,STARLINK-4799,PAYLOAD,2023-03-09 18:29:22,15.08918122,8.47e-05,53.2158,164.0104,100.0287,260.08,0.0043655,0.00070029,0.0,0 STARLINK-4799,1 53860U 22114AU  23068.77040247  .00070029  00000-0  43655-2 0  9995,2 53860  53.2158 164.0104 0000847 100.0287 260.0800 15.08918122 27126,6917.642,95.433,540.093,538.921,0.0
53860.0,STARLINK-4799,PAYLOAD,2023-03-09 21:40:10,15.08814115,0.0002791,53.2156,163.4164,49.2249,310.8985,0.0011438,0.0001795,0.0,0 STARLINK-4799,1 53860U 22114AU  23068.90289876  .00017950  00000-0  11438-2 0  9991,2 53860  53.2156 163.4164 0002791  49.2249 310.8985 15.08814115 27445,6917.96,95.439,541.755,537.894,0.0
53860.0,STARLINK-4799,PAYLOAD,2023-03-10 05:37:06,15.08819542,0.0001499,53.2153,161.9297,79.5767,280.5394,0.0042238,0.00067541,0.0,0 STARLINK-4799,1 53860U 22114AU  23069.23409900  .00067541  00000-0  42238-2 0  9993,2 53860  53.2153 161.9297 0001499  79.5767 280.5394 15.08819542 27195,6917.943,95.439,540.845,538.771,0.0
53860.0,STARLINK-4799,PAYLOAD,2023-03-10 19:55:34,15.08822116,0.000204,53.2149,159.2529,66.0395,294.0811,0.00039542,6.008e-05,0.0,0 STARLINK-4799,1 53860U 22114AU  23069.83026389  .00006008  00000-0  39542-3 0  9991,2 53860  53.2149 159.2529 0002040  66.0395 294.0811 15.08822116 27284,6917.935,95.439,541.211,538.389,0.0
53860.0,STARLINK-4799,PAYLOAD,2023-03-10 21:30:58,15.08823075,0.0002254,53.2149,158.9561,60.1725,299.949,0.001593,0.00025144,0.0,0 STARLINK-4799,1 53860U 22114AU  23069.89650520  .00025144  00000-0  15930-2 0  9993,2 53860  53.2149 158.9561 0002254  60.1725 299.9490 15.08823075 27591,6917.932,95.439,541.356,538.238,0.0
53860.0,STARLINK-4799,PAYLOAD,2023-03-11 05:27:53,15.08834996,0.0001451,53.2146,157.4689,97.0403,263.0754,0.0037361,0.00059668,0.0,0 STARLINK-4799,1 53860U 22114AU  23070.22770367  .00059668  00000-0  37361-2 0  9994,2 53860  53.2146 157.4689 0001451  97.0403 263.0754 15.08834996 27345,6917.896,95.438,540.764,538.757,0.0
53860.0,STARLINK-4799,PAYLOAD,2023-03-11 13:24:48,15.08868432,0.0001393,53.2147,155.9814,99.5817,260.5333,0.0031033,0.00049487,0.0,0 STARLINK-4799,1 53860U 22114AU  23070.55890033  .00049487  00000-0  31033-2 0  9991,2 53860  53.2147 155.9814 0001393  99.5817 260.5333 15.08868432 27695,6917.793,95.436,540.622,538.695,0.0
53860.0,STARLINK-4799,PAYLOAD,2023-03-11 19:46:21,15.08825381,0.0001479,53.2147,154.7923,73.7848,286.3306,7.0526e-05,8.34e-06,0.0,0 STARLINK-4799,1 53860U 22114AU  23070.82386276  .00000834  00000-0  70526-4 0  9995,2 53860  53.2147 154.7923 0001479  73.7848 286.3306 15.08825381 27430,6917.925,95.438,540.813,538.767,0.0
53860.0,STARLINK-4799,PAYLOAD,2023-03-11 21:21:44,15.08817097,0.0001466,53.2147,154.4954,73.4199,286.6954,0.00035822,5.414e-05,0.0,0 STARLINK-4799,1 53860U 22114AU  23070.89010369  .00005414  00000-0  35822-3 0  9997,2 53860  53.2147 154.4954 0001466  73.4199 286.6954 15.08817097 27744,6917.95,95.439,540.83,538.801,0.0
53860.0,STARLINK-4799,PAYLOAD,2023-03-12 11:40:13,15.08843893,0.0001499,53.2147,151.8182,73.4832,286.6325,0.0033072,0.00052746,0.0,0 STARLINK-4799,1 53860U 22114AU  23071.48627064  .00052746  00000-0  33072-2 0  9993,2 53860  53.2147 151.8182 0001499  73.4832 286.6325 15.08843893 27833,6917.868,95.437,540.77,538.697,0.0
53860.0,STARLINK-4799,PAYLOAD,2023-03-12 14:50:59,15.08858995,0.0001525,53.2146,151.2231,74.3173,285.7987,0.0032604,0.00052012,0.0,0 STARLINK-4799,1 53860U 22114AU  23071.61874941  .00052012  00000-0  32604-2 0  9992,2 53860  53.2146 151.2231 0001525  74.3173 285.7987 15.08858995 27551,6917.822,95.436,540.742,538.632,0.0
